STARLINK-37987          
1 69749U 26150L   26201.86621218  .00175532  00000+0  11521-2 0  9998
2 69749  97.2853  40.5038 0001313  84.3549 275.7866 15.75222173  4215
STARLINK-38037          
1 69750U 26150M   26200.06041013  .00203229  00000+0  10371-2 0  9997
2 69750  97.2848  38.6752 0001985  76.0288 284.1201 15.80816640  3934
STARLINK-38049          
1 69751U 26150N   26201.51531777  .00186309  00000+0  94954-3 0  9999
2 69751  97.2850  40.2170 0000906  91.9583 268.1790 15.80890617  4164
STARLINK-38029          
1 69752U 26150P   26201.72258124  .00159833  00000+0  10484-2 0  9992
2 69752  97.2861  40.3946 0004059  47.0506 313.1100 15.75272479  4192
STARLINK-37965          
1 69753U 26150Q   26201.72928754  .00146049  00000+0  96149-3 0  9994
2 69753  97.2856  40.3837 0004389  45.8990 314.2635 15.75226315  4198
STARLINK-38048          
1 69754U 26150R   26201.82570080  .00251497  00000+0  12719-2 0  9995
2 69754  97.2837  40.5596 0002756 100.0999 260.0581 15.80888972  4211
STARLINK-38006          
1 69755U 26150S   26201.84715772  .00162059  00000+0  10671-2 0  9997
2 69755  97.2854  40.5304 0001680  70.1952 289.9495 15.75184906  4213
STARLINK-38036          
1 69756U 26150T   26201.07813709  .00141164  00000+0  93255-3 0  9996
2 69756  97.2844  39.7405 0001563  76.2470 283.8969 15.75169439  4096
STARLINK-38058          
1 69757U 26150U   26201.91668981 -.00048102  00000+0 -32343-3 0  9991
2 69757  97.2847  40.6462 0001415  93.9403  36.2300 15.75190250  4210
STARLINK-38066          
1 69758U 26150V   26201.91668981  .00057991  00000+0  38698-3 0  9995
2 69758  97.2841  40.6546 0001632 115.5454  38.5045 15.75192427  4215
STARLINK-38035          
1 69759U 26150W   26201.50457549 -.00179511  00000+0 -95930-3 0  9994
2 69759  97.2853  40.2328 0002859  62.5796 297.5762 15.80728470  4161
STARLINK-38056          
1 69760U 26150X   26201.81762286  .00211344  00000+0  10774-2 0  9998
2 69760  97.2841  40.5721 0001586  89.4510 270.6940 15.80820334  4216
STARLINK-38069          
1 69761U 26150Y   26201.91668981 -.00040228  00000+0 -27015-3 0  9997
2 69761  97.2852  40.6614 0001261  95.3910  70.7776 15.75186672  4211
STARLINK-38019          
1 69762U 26150Z   26201.84645168  .00163856  00000+0  10768-2 0  9999
2 69762  97.2846  40.5313 0001265  71.8217 288.3186 15.75225151  4211
KUIPER-00258            
1 69763U 26151A   26201.91668981  .00006683  00000+0  20623-3 0  9993
2 69763  51.8685 152.9911 0011094 188.7683  89.0087 15.34732262  3257
KUIPER-00526            
1 69764U 26151B   26201.32247838  .00010990  00000+0  30514-3 0  9999
2 69764  51.8770 155.6029 0005863 155.9128 204.2134 15.37397004  2808
KUIPER-00558            
1 69765U 26151C   26201.91668981 -.00016151  00000+0 -54362-3 0  9995
2 69765  51.8802 152.9281 0006849 170.1477 139.8464 15.29585986  3502
KUIPER-00569            
1 69766U 26151D   26201.90579910  .00010349  00000+0  28754-3 0  9995
2 69766  51.8781 152.7636 0005013 148.9492 211.1792 15.37445994  2895
KUIPER-00589            
1 69767U 26151E   26201.91668981  .00015885  00000+0  46936-3 0  9996
2 69767  51.8763 152.7241 0005423 158.6210 250.6144 15.35092958  3536
KUIPER-00598            
1 69768U 26151F   26201.91668981  .00003927  00000+0  12758-3 0  9996
2 69768  51.8652 152.9963 0008599 178.5076  94.3765 15.34312270  3437
KUIPER-00604            
1 69769U 26151G   26201.44162101  .00008982  00000+0  24411-3 0  9993
2 69769  51.8800 154.9025 0002727 121.5844 238.5410 15.38318795  2825
KUIPER-00609            
1 69770U 26151H   26201.89140202  .00016247  00000+0  42712-3 0  9999
2 69770  51.8797 152.6676 0001485  64.8107 295.3034 15.38728697  2896
KUIPER-00611            
1 69771U 26151J   26201.89380311  .00019496  00000+0  51321-3 0  9992
2 69771  51.8809 152.6808 0001534 105.7961 254.3195 15.38551151  2898
KUIPER-00612            
1 69772U 26151K   26201.57508469  .00009088  00000+0  24923-3 0  9998
2 69772  51.8794 154.2974 0003710 132.3653 227.7649 15.38020334  2843
KUIPER-00614            
1 69773U 26151L   26201.89742952  .00014879  00000+0  39829-3 0  9996
2 69773  51.8803 152.7054 0002808 136.5022 223.6187 15.38242741  2895
KUIPER-00615            
1 69774U 26151M   26201.58357123  .00016655  00000+0  45787-3 0  9999
2 69774  51.8783 154.3513 0006031 162.1240 197.9960 15.37312394  2848
KUIPER-00616            
1 69775U 26151N   26201.57050058  .00015025  00000+0  39991-3 0  9996
2 69775  51.8781 154.2702 0002781 138.3833 221.7366 15.38409114  2841
KUIPER-00617            
1 69776U 26151P   26201.51173558  .00012150  00000+0  33120-3 0  9996
2 69776  51.8802 154.6220 0003873 152.1519 207.9676 15.37866569  2832
KUIPER-00619            
1 69777U 26151Q   26201.89257470  .00018763  00000+0  49298-3 0  9993
2 69777  51.8796 152.6743 0001995  84.1712 275.9503 15.38637348  2897
KUIPER-00621            
1 69778U 26151R   26201.89540627  .00014627  00000+0  39020-3 0  9990
2 69778  51.8780 152.6958 0002491 133.8545 226.2649 15.38362708  2892
