OBJECT_NAME,OBJECT_ID,EPOCH,MEAN_MOTION,ECCENTRICITY,INCLINATION,RA_OF_ASC_NODE,ARG_OF_PERICENTER,MEAN_ANOMALY,EPHEMERIS_TYPE,CLASSIFICATION_TYPE,NORAD_CAT_ID,ELEMENT_SET_NO,REV_AT_EPOCH,BSTAR,MEAN_MOTION_DOT,MEAN_MOTION_DDOT
STARLINK-37987,2026-150L,2026-07-20T20:47:20.732352,15.75222173,.00013132,97.2853,40.5038,84.3549,275.7866,0,U,69749,999,421,.115208E-2,.175532E-2,0
STARLINK-38037,2026-150M,2026-07-19T01:26:59.435232,15.80816640,.00019856,97.2848,38.6752,76.0288,284.1201,0,U,69750,999,393,.10371471E-2,.203229E-2,0
STARLINK-38049,2026-150N,2026-07-20T12:22:03.455328,15.80890617,.00009068,97.2850,40.2170,91.9583,268.1790,0,U,69751,999,416,.94953999E-3,.186309E-2,0
STARLINK-38029,2026-150P,2026-07-20T17:20:31.019136,15.75272479,.00040595,97.2861,40.3946,47.0506,313.1100,0,U,69752,999,419,.10484487E-2,.159833E-2,0
STARLINK-37965,2026-150Q,2026-07-20T17:30:10.443456,15.75226315,.00043895,97.2856,40.3837,45.8990,314.2635,0,U,69753,999,419,.96149257E-3,.146049E-2,0
STARLINK-38048,2026-150R,2026-07-20T19:49:00.549120,15.80888972,.00027563,97.2837,40.5596,100.0999,260.0581,0,U,69754,999,421,.12719003E-2,.251497E-2,0
STARLINK-38006,2026-150S,2026-07-20T20:19:54.427008,15.75184906,.000168,97.2854,40.5304,70.1952,289.9495,0,U,69755,999,421,.10671138E-2,.162059E-2,0
STARLINK-38036,2026-150T,2026-07-20T01:52:31.044576,15.75169439,.00015631,97.2844,39.7405,76.2470,283.8969,0,U,69756,999,409,.93255362E-3,.141164E-2,0
STARLINK-38058,2026-150U,2026-07-20T22:00:01.999584,15.75190250,.00014151,97.2847,40.6462,93.9403,36.2300,0,U,69757,999,421,-.3234346E-3,-.48102E-3,0
STARLINK-38066,2026-150V,2026-07-20T22:00:01.999584,15.75192427,.0001632,97.2841,40.6546,115.5454,38.5045,0,U,69758,999,421,.38698279E-3,.57991E-3,0
STARLINK-38035,2026-150W,2026-07-20T12:06:35.322336,15.80728470,.00028594,97.2853,40.2328,62.5796,297.5762,0,U,69759,999,416,-.95929881E-3,-.179511E-2,0
STARLINK-38056,2026-150X,2026-07-20T19:37:22.615104,15.80820334,.0001586,97.2841,40.5721,89.4510,270.6940,0,U,69760,999,421,.10773654E-2,.211344E-2,0
STARLINK-38069,2026-150Y,2026-07-20T22:00:01.999584,15.75186672,.00012617,97.2852,40.6614,95.3910,70.7776,0,U,69761,999,421,-.27014706E-3,-.40228E-3,0
STARLINK-38019,2026-150Z,2026-07-20T20:18:53.425152,15.75225151,.00012657,97.2846,40.5313,71.8217,288.3186,0,U,69762,999,421,.10768489E-2,.163856E-2,0
KUIPER-00258,2026-151A,2026-07-20T22:00:01.999584,15.34732262,.00110941,51.8685,152.9911,188.7683,89.0087,0,U,69763,999,325,.20623165E-3,.6683E-4,0
KUIPER-00526,2026-151B,2026-07-20T07:44:22.132032,15.37397004,.00058634,51.8770,155.6029,155.9128,204.2134,0,U,69764,999,280,.30514264E-3,.1099E-3,0
KUIPER-00558,2026-151C,2026-07-20T22:00:01.999584,15.29585986,.00068491,51.8802,152.9281,170.1477,139.8464,0,U,69765,999,350,-.54362137E-3,-.16151E-3,0
KUIPER-00569,2026-151D,2026-07-20T21:44:21.042240,15.37445994,.00050139,51.8781,152.7636,148.9492,211.1792,0,U,69766,999,289,.28754174E-3,.10349E-3,0
KUIPER-00589,2026-151E,2026-07-20T22:00:01.999584,15.35092958,.00054237,51.8763,152.7241,158.6210,250.6144,0,U,69767,999,353,.46935684E-3,.15885E-3,0
KUIPER-00598,2026-151F,2026-07-20T22:00:01.999584,15.34312270,.00085992,51.8652,152.9963,178.5076,94.3765,0,U,69768,999,343,.12757779E-3,.3927E-4,0
KUIPER-00604,2026-151G,2026-07-20T10:35:56.055264,15.38318795,.00027277,51.8800,154.9025,121.5844,238.5410,0,U,69769,999,282,.24410907E-3,.8982E-4,0
KUIPER-00609,2026-151H,2026-07-20T21:23:37.134528,15.38728697,.00014858,51.8797,152.6676,64.8107,295.3034,0,U,69770,999,289,.4271182E-3,.16247E-3,0
KUIPER-00611,2026-151J,2026-07-20T21:27:04.588704,15.38551151,.0001534,51.8809,152.6808,105.7961,254.3195,0,U,69771,999,289,.51321302E-3,.19496E-3,0
KUIPER-00612,2026-151K,2026-07-20T13:48:07.317216,15.38020334,.000371,51.8794,154.2974,132.3653,227.7649,0,U,69772,999,284,.24923E-3,.9088E-4,0
KUIPER-00614,2026-151L,2026-07-20T21:32:17.910528,15.38242741,.00028086,51.8803,152.7054,136.5022,223.6187,0,U,69773,999,289,.39829215E-3,.14879E-3,0
KUIPER-00615,2026-151M,2026-07-20T14:00:20.554272,15.37312394,.0006031,51.8783,154.3513,162.1240,197.9960,0,U,69774,999,284,.45787E-3,.16655E-3,0
KUIPER-00616,2026-151N,2026-07-20T13:41:31.250112,15.38409114,.0002781,51.8781,154.2702,138.3833,221.7366,0,U,69775,999,284,.39991E-3,.15025E-3,0
KUIPER-00617,2026-151P,2026-07-20T12:16:53.954112,15.37866569,.0003873,51.8802,154.6220,152.1519,207.9676,0,U,69776,999,283,.33120265E-3,.1215E-3,0
KUIPER-00619,2026-151Q,2026-07-20T21:25:18.454080,15.38637348,.00019957,51.8796,152.6743,84.1712,275.9503,0,U,69777,999,289,.49298367E-3,.18763E-3,0
KUIPER-00621,2026-151R,2026-07-20T21:29:23.101728,15.38362708,.00024917,51.8780,152.6958,133.8545,226.2649,0,U,69778,999,289,.39020217E-3,.14627E-3,0
